{"type": "FeatureCollection", "features": [ {"type": "Feature", "properties": {"norad_id": 34375, "name": "IRIDIUM 33 DEB", "group": "iridium-33-debris", "lat": -1.3115271318426178, "lon": -1.3319572483854811, "alt_km": 829.8301886437421, "timestamp": "2025-12-22T22:44:21.363569+00:00", "meta": {"OBJECT_NAME": "IRIDIUM 33 DEB", "OBJECT_ID": "1997-051FT", "EPOCH": "2025-12-22T12:02:26.342592", "MEAN_MOTION": 14.18009533, "ECCENTRICITY": 0.01037059, "INCLINATION": 86.4323, "RA_OF_ASC_NODE": 178.7659, "ARG_OF_PERICENTER": 96.2041, "MEAN_ANOMALY": 329.6113, "EPHEMERIS_TYPE": 0, "CLASSIFICATION_TYPE": "U", "NORAD_CAT_ID": 34375, "ELEMENT_SET_NO": 999, "REV_AT_EPOCH": 86850, "BSTAR": 0.00038502204, "MEAN_MOTION_DOT": 8.51e-06, "MEAN_MOTION_DDOT": 0}, "tle": {"line1": "1 34375U 97051FT  25356.50169378  .00000851  00000+0  38502-3 0  9998", "line2": "2 34375  86.4323 178.7659 0103705  96.2041 329.6113 14.18009533868507"}}, "geometry": {"type": "Point", "coordinates": [-1.3319572483854811, -1.3115271318426178]}}, {"type": "Feature", "properties": {"norad_id": 34376, "name": "IRIDIUM 33 DEB", "group": "iridium-33-debris", "lat": 29.726888582324868, "lon": 4.068744920334963, "alt_km": 687.5630764109574, "timestamp": "2025-12-22T22:44:21.363579+00:00", "meta": {"OBJECT_NAME": "IRIDIUM 33 DEB", "OBJECT_ID": "1997-051FU", "EPOCH": "2025-12-22T11:06:35.989056", "MEAN_MOTION": 14.62691477, "ECCENTRICITY": 0.00282378, "INCLINATION": 86.2977, "RA_OF_ASC_NODE": 2.1677, "ARG_OF_PERICENTER": 134.6702, "MEAN_ANOMALY": 225.6818, "EPHEMERIS_TYPE": 0, "CLASSIFICATION_TYPE": "U", "NORAD_CAT_ID": 34376, "ELEMENT_SET_NO": 999, "REV_AT_EPOCH": 88149, "BSTAR": 0.001527068, "MEAN_MOTION_DOT": 7.84e-05, "MEAN_MOTION_DDOT": 0}, "tle": {"line1": "1 34376U 97051FU  25356.46291654  .00007840  00000+0  15271-2 0  9999", "line2": "2 34376  86.2977   2.1677 0028237 134.6702 225.6818 14.62691477881491"}}, "geometry": {"type": "Point", "coordinates": [4.068744920334963, 29.726888582324868]}}, {"type": "Feature", "properties": {"norad_id": 34486, "name": "IRIDIUM 33 DEB", "group": "iridium-33-debris", "lat": 31.488588940235704, "lon": 9.526061186743402, "alt_km": 570.8435751675433, "timestamp": "2025-12-22T22:44:21.363590+00:00", "meta": {"OBJECT_NAME": "IRIDIUM 33 DEB", "OBJECT_ID": "1997-051GB", "EPOCH": "2025-12-22T11:56:52.779840", "MEAN_MOTION": 14.9620636, "ECCENTRICITY": 0.00139165, "INCLINATION": 86.3926, "RA_OF_ASC_NODE": 7.5191, "ARG_OF_PERICENTER": 84.4454, "MEAN_ANOMALY": 47.0404, "EPHEMERIS_TYPE": 0, "CLASSIFICATION_TYPE": "U", "NORAD_CAT_ID": 34486, "ELEMENT_SET_NO": 999, "REV_AT_EPOCH": 89132, "BSTAR": 0.002364133, "MEAN_MOTION_DOT": 0.00026794, "MEAN_MOTION_DDOT": 0}, "tle": {"line1": "1 34486U 97051GB  25356.49783310  .00026794  00000+0  23641-2 0  9998", "line2": "2 34486  86.3926   7.5191 0013916  84.4454  47.0404 14.96206360891322"}}, "geometry": {"type": "Point", "coordinates": [9.526061186743402, 31.488588940235704]}}, {"type": "Feature", "properties": {"norad_id": 34487, "name": "IRIDIUM 33 DEB", "group": "iridium-33-debris", "lat": -86.3371399508884, "lon": -84.48488582963938, "alt_km": 778.8327497166974, "timestamp": "2025-12-22T22:44:21.363600+00:00", "meta": {"OBJECT_NAME": "IRIDIUM 33 DEB", "OBJECT_ID": "1997-051GC", "EPOCH": "2025-12-22T12:14:23.193024", "MEAN_MOTION": 14.43228274, "ECCENTRICITY": 0.00332296, "INCLINATION": 86.3429, "RA_OF_ASC_NODE": 8.1704, "ARG_OF_PERICENTER": 97.9681, "MEAN_ANOMALY": 60.3024, "EPHEMERIS_TYPE": 0, "CLASSIFICATION_TYPE": "U", "NORAD_CAT_ID": 34487, "ELEMENT_SET_NO": 999, "REV_AT_EPOCH": 88389, "BSTAR": 0.00017391804, "MEAN_MOTION_DOT": 6.09e-06, "MEAN_MOTION_DDOT": 0}, "tle": {"line1": "1 34487U 97051GC  25356.50999066  .00000609  00000+0  17392-3 0  9992", "line2": "2 34487  86.3429   8.1704 0033229  97.9681  60.3024 14.43228274883897"}}, "geometry": {"type": "Point", "coordinates": [-84.48488582963938, -86.3371399508884]}}, {"type": "Feature", "properties": {"norad_id": 34488, "name": "IRIDIUM 33 DEB", "group": "iridium-33-debris", "lat": -25.501793814241857, "lon": 122.50469776401886, "alt_km": 484.0746211357837, "timestamp": "2025-12-22T22:44:21.363611+00:00", "meta": {"OBJECT_NAME": "IRIDIUM 33 DEB", "OBJECT_ID": "1997-051GD", "EPOCH": "2025-12-20T21:13:54.490080", "MEAN_MOTION": 15.31302202, "ECCENTRICITY": 0.0010948, "INCLINATION": 86.3254, "RA_OF_ASC_NODE": 301.7725, "ARG_OF_PERICENTER": 38.0894, "MEAN_ANOMALY": 322.1127, "EPHEMERIS_TYPE": 0, "CLASSIFICATION_TYPE": "U", "NORAD_CAT_ID": 34488, "ELEMENT_SET_NO": 999, "REV_AT_EPOCH": 89364, "BSTAR": 0.0030791, "MEAN_MOTION_DOT": 0.00094223, "MEAN_MOTION_DDOT": 0}, "tle": {"line1": "1 34488U 97051GD  25354.88465845  .00094223  00000+0  30791-2 0  9997", "line2": "2 34488  86.3254 301.7725 0010948  38.0894 322.1127 15.31302202893643"}}, "geometry": {"type": "Point", "coordinates": [122.50469776401886, -25.501793814241857]}}, {"type": "Feature", "properties": {"norad_id": 34492, "name": "IRIDIUM 33 DEB", "group": "iridium-33-debris", "lat": 78.67276649877192, "lon": -11.556586957967694, "alt_km": 875.7545430461578, "timestamp": "2025-12-22T22:44:21.363621+00:00", "meta": {"OBJECT_NAME": "IRIDIUM 33 DEB", "OBJECT_ID": "1997-051GH", "EPOCH": "2025-12-22T09:36:22.954752", "MEAN_MOTION": 14.25888623, "ECCENTRICITY": 0.0188716, "INCLINATION": 86.4712, "RA_OF_ASC_NODE": 330.7228, "ARG_OF_PERICENTER": 206.7682, "MEAN_ANOMALY": 307.0999, "EPHEMERIS_TYPE": 0, "CLASSIFICATION_TYPE": "U", "NORAD_CAT_ID": 34492, "ELEMENT_SET_NO": 999, "REV_AT_EPOCH": 85196, "BSTAR": 0.0031446938, "MEAN_MOTION_DOT": 9.05e-05, "MEAN_MOTION_DDOT": 0}, "tle": {"line1": "1 34492U 97051GH  25356.40026568  .00009050  00000+0  31447-2 0  9990", "line2": "2 34492  86.4712 330.7228 0188716 206.7682 307.0999 14.25888623851962"}}, "geometry": {"type": "Point", "coordinates": [-11.556586957967694, 78.67276649877192]}}, {"type": "Feature", "properties": {"norad_id": 34497, "name": "IRIDIUM 33 DEB", "group": "iridium-33-debris", "lat": 20.557861286415907, "lon": 49.44013397232129, "alt_km": 784.7813446414084, "timestamp": "2025-12-22T22:44:21.363632+00:00", "meta": {"OBJECT_NAME": "IRIDIUM 33 DEB", "OBJECT_ID": "1997-051GN", "EPOCH": "2025-12-21T03:02:18.965760", "MEAN_MOTION": 14.27475874, "ECCENTRICITY": 0.00780469, "INCLINATION": 86.2771, "RA_OF_ASC_NODE": 48.8187, "ARG_OF_PERICENTER": 312.1215, "MEAN_ANOMALY": 76.3389, "EPHEMERIS_TYPE": 0, "CLASSIFICATION_TYPE": "U", "NORAD_CAT_ID": 34497, "ELEMENT_SET_NO": 999, "REV_AT_EPOCH": 87003, "BSTAR": 0.00042941712, "MEAN_MOTION_DOT": 1.107e-05, "MEAN_MOTION_DDOT": 0}, "tle": {"line1": "1 34497U 97051GN  25355.12660840  .00001107  00000+0  42942-3 0  9998", "line2": "2 34497  86.2771  48.8187 0078046 312.1215  76.3389 14.27475874870039"}}, "geometry": {"type": "Point", "coordinates": [49.44013397232129, 20.557861286415907]}}, {"type": "Feature", "properties": {"norad_id": 34508, "name": "IRIDIUM 33 DEB", "group": "iridium-33-debris", "lat": -42.16094464286888, "lon": -78.38929280862912, "alt_km": 763.2208590860073, "timestamp": "2025-12-22T22:44:21.363642+00:00", "meta": {"OBJECT_NAME": "IRIDIUM 33 DEB", "OBJECT_ID": "1997-051GZ", "EPOCH": "2025-12-22T06:41:24.031968", "MEAN_MOTION": 14.38495257, "ECCENTRICITY": 0.00666176, "INCLINATION": 86.3708, "RA_OF_ASC_NODE": 98.5996, "ARG_OF_PERICENTER": 142.363, "MEAN_ANOMALY": 218.2258, "EPHEMERIS_TYPE": 0, "CLASSIFICATION_TYPE": "U", "NORAD_CAT_ID": 34508, "ELEMENT_SET_NO": 999, "REV_AT_EPOCH": 87446, "BSTAR": 0.0011650926, "MEAN_MOTION_DOT": 3.671e-05, "MEAN_MOTION_DDOT": 0}, "tle": {"line1": "1 34508U 97051GZ  25356.27875037  .00003671  00000+0  11651-2 0  9994", "line2": "2 34508  86.3708  98.5996 0066617 142.3630 218.2258 14.38495257874460"}}, "geometry": {"type": "Point", "coordinates": [-78.38929280862912, -42.16094464286888]}}, {"type": "Feature", "properties": {"norad_id": 34521, "name": "IRIDIUM 33 DEB", "group": "iridium-33-debris", "lat": -54.346483974073244, "lon": -148.88169449751845, "alt_km": 688.2416733174823, "timestamp": "2025-12-22T22:44:21.363652+00:00", "meta": {"OBJECT_NAME": "IRIDIUM 33 DEB", "OBJECT_ID": "1997-051HN", "EPOCH": "2025-12-22T11:49:30.487008", "MEAN_MOTION": 14.63442737, "ECCENTRICITY": 0.00027328, "INCLINATION": 86.3786, "RA_OF_ASC_NODE": 26.2535, "ARG_OF_PERICENTER": 175.2119, "MEAN_ANOMALY": 184.912, "EPHEMERIS_TYPE": 0, "CLASSIFICATION_TYPE": "U", "NORAD_CAT_ID": 34521, "ELEMENT_SET_NO": 999, "REV_AT_EPOCH": 88615, "BSTAR": 0.00082546651, "MEAN_MOTION_DOT": 4.292e-05, "MEAN_MOTION_DDOT": 0}, "tle": {"line1": "1 34521U 97051HN  25356.49271397  .00004292  00000+0  82547-3 0  9995", "line2": "2 34521  86.3786  26.2535 0002732 175.2119 184.9120 14.63442737886152"}}, "geometry": {"type": "Point", "coordinates": [-148.88169449751845, -54.346483974073244]}}, {"type": "Feature", "properties": {"norad_id": 34525, "name": "IRIDIUM 33 DEB", "group": "iridium-33-debris", "lat": 21.357156014560893, "lon": 43.90824368775437, "alt_km": 745.8214867933739, "timestamp": "2025-12-22T22:44:21.363662+00:00", "meta": {"OBJECT_NAME": "IRIDIUM 33 DEB", "OBJECT_ID": "1997-051HS", "EPOCH": "2025-12-22T09:23:58.915968", "MEAN_MOTION": 14.42927542, "ECCENTRICITY": 0.00063657, "INCLINATION": 86.3719, "RA_OF_ASC_NODE": 42.7238, "ARG_OF_PERICENTER": 72.8849, "MEAN_ANOMALY": 303.3135, "EPHEMERIS_TYPE": 0, "CLASSIFICATION_TYPE": "U", "NORAD_CAT_ID": 34525, "ELEMENT_SET_NO": 999, "REV_AT_EPOCH": 88227, "BSTAR": 0.00031969336, "MEAN_MOTION_DOT": 1.088e-05, "MEAN_MOTION_DDOT": 0}, "tle": {"line1": "1 34525U 97051HS  25356.39165412  .00001088  00000+0  31969-3 0  9990", "line2": "2 34525  86.3719  42.7238 0006365  72.8849 303.3135 14.42927542882274"}}, "geometry": {"type": "Point", "coordinates": [43.90824368775437, 21.357156014560893]}}]}